{"fetched_at":"2026-07-18T06:28:22.345Z","source":"https://celestrak.org/NORAD/elements/gp.php?NAME=PLEIADES&FORMAT=JSON","constellation":"pleiades","records":[{"OBJECT_NAME":"PLEIADES 1A","OBJECT_ID":"2011-076F","EPOCH":"2026-07-18T00:12:42.177600","CLASSIFICATION_TYPE":"U","MEAN_MOTION":14.58547057,"ECCENTRICITY":0.00016596,"INCLINATION":98.1968,"RA_OF_ASC_NODE":273.6958,"ARG_OF_PERICENTER":77.94,"MEAN_ANOMALY":47.864,"EPHEMERIS_TYPE":0,"NORAD_CAT_ID":38012,"ELEMENT_SET_NO":999,"REV_AT_EPOCH":77648,"BSTAR":0.000004594428,"MEAN_MOTION_DOT":-2.4e-7,"MEAN_MOTION_DDOT":0},{"OBJECT_NAME":"PLEIADES 1B","OBJECT_ID":"2012-068A","EPOCH":"2026-07-17T22:48:22.748256","CLASSIFICATION_TYPE":"U","MEAN_MOTION":14.58534645,"ECCENTRICITY":0.0001526,"INCLINATION":98.1939,"RA_OF_ASC_NODE":273.5763,"ARG_OF_PERICENTER":78.1041,"MEAN_ANOMALY":282.0329,"EPHEMERIS_TYPE":0,"NORAD_CAT_ID":39019,"ELEMENT_SET_NO":999,"REV_AT_EPOCH":72533,"BSTAR":0.000011150235,"MEAN_MOTION_DOT":6e-8,"MEAN_MOTION_DDOT":0}]}
